LYNK TOWER 6            
1 59123U 24043AB  26068.89488777  .00011440  00000+0  40142-3 0  9996
2 59123  97.5426 204.1954 0009749 232.0253 128.0107 15.29548678111845
STARLINK-34638          
1 64762U 25147H   26068.70754169  .00014479  00000+0  50005-3 0  9992
2 64762  53.1573 242.7272 0000827  99.8227 260.2867 15.30198319 38755
